{
    "links": {
        "self": "http://www.neowsapp.com/rest/v1/neo/3449124?api_key=iIulBulltgU6a56xZRHN4H3l9WmuAYTsLGpBGhQ2"
    },
    "id": "3449124",
    "neo_reference_id": "3449124",
    "name": "(2009 EZ)",
    "designation": "2009 EZ",
    "nasa_jpl_url": "http://ssd.jpl.nasa.gov/sbdb.cgi?sstr=3449124",
    "absolute_magnitude_h": 20.5,
    "estimated_diameter": {
        "kilometers": {
            "estimated_diameter_min": 0.2111324448,
            "estimated_diameter_max": 0.4721064988
        },
        "meters": {
            "estimated_diameter_min": 211.1324447897,
            "estimated_diameter_max": 472.1064988055
        },
        "miles": {
            "estimated_diameter_min": 0.1311915784,
            "estimated_diameter_max": 0.2933532873
        },
        "feet": {
            "estimated_diameter_min": 692.6917701639,
            "estimated_diameter_max": 1548.9058855411
        }
    },
    "is_potentially_hazardous_asteroid": false,
    "close_approach_data": [
        {
            "close_approach_date": "2009-03-31",
            "close_approach_date_full": "2009-Mar-31 05:57",
            "epoch_date_close_approach": 1238479020000,
            "relative_velocity": {
                "kilometers_per_second": "11.7230079304",
                "kilometers_per_hour": "42202.828549467",
                "miles_per_hour": "26223.1964395285"
            },
            "miss_distance": {
                "astronomical": "0.2305579105",
                "lunar": "89.6870271845",
                "kilometers": "34490972.322450635",
                "miles": "21431696.400203363"
            },
            "orbiting_body": "Earth"
        }
    ],
    "orbital_data": {
        "orbit_id": "14",
        "orbit_determination_date": "2017-04-06 09:01:06",
        "first_observation_date": "2009-03-02",
        "last_observation_date": "2009-03-27",
        "data_arc_in_days": 25,
        "observations_used": 43,
        "orbit_uncertainty": "7",
        "minimum_orbit_intersection": ".2222",
        "jupiter_tisserand_invariant": "3.319",
        "epoch_osculation": "2459000.5",
        "eccentricity": ".517616139480457",
        "semi_major_axis": "2.329191632145077",
        "inclination": "18.67010397271332",
        "ascending_node_longitude": "348.6746277492829",
        "orbital_period": "1298.393278746549",
        "perihelion_distance": "1.123564451403957",
        "perihelion_argument": "232.4224847902743",
        "aphelion_distance": "3.534818812886196",
        "perihelion_time": "2458849.244402151515",
        "mean_anomaly": "41.93799838368054",
        "mean_motion": ".2772657606080178",
        "equinox": "J2000",
        "orbit_class": {
            "orbit_class_type": "AMO",
            "orbit_class_description": "Near-Earth asteroid orbits similar to that of 1221 Amor",
            "orbit_class_range": "1.017 AU < q (perihelion) < 1.3 AU"
        }
    },
    "is_sentry_object": false
}